OBJECT_NAME,OBJECT_ID,EPOCH,MEAN_MOTION,ECCENTRICITY,INCLINATION,RA_OF_ASC_NODE,ARG_OF_PERICENTER,MEAN_ANOMALY,EPHEMERIS_TYPE,CLASSIFICATION_TYPE,NORAD_CAT_ID,ELEMENT_SET_NO,REV_AT_EPOCH,BSTAR,MEAN_MOTION_DOT,MEAN_MOTION_DDOT
STARLINK-5699,2023-015A,2026-07-18T16:37:36.607584,15.27599184,.0001255,43.0047,309.2054,290.2255,69.8462,0,U,55449,999,19169,-.22454E-3,-.6439E-4,0
STARLINK-5686,2023-015B,2026-07-18T16:32:05.958240,15.27560564,.0000863,43.0033,309.1779,307.6355,52.4419,0,U,55450,999,19169,.12725E-3,.3239E-4,0
STARLINK-5656,2023-015C,2026-07-18T16:43:10.524576,15.27584022,.0002119,43.0057,309.2308,276.2011,83.8599,0,U,55451,999,19075,-.22308E-4,-.876E-5,0
STARLINK-5683,2023-015D,2026-07-18T15:20:06.940608,15.27576839,.0001521,43.0040,309.6497,288.9321,71.1366,0,U,55452,999,19074,.36108E-4,.731E-5,0
STARLINK-5684,2023-015E,2026-07-18T09:27:20.020608,15.27576444,.00016575,43.0039,310.4024,273.1958,86.8704,0,U,55453,999,19071,.25051293E-4,.427E-5,0
STARLINK-5636,2023-015F,2026-07-18T00:17:11.927904,15.27577548,.00011929,43.0030,312.6839,273.9217,86.1498,0,U,55454,999,19065,.14453861E-4,.136E-5,0
STARLINK-5680,2023-015G,2026-07-18T07:23:46.968864,15.27578519,.00023007,43.0047,311.4739,275.3812,84.6777,0,U,55455,999,19069,.18249538E-4,.24E-5,0
STARLINK-5058,2023-015H,2026-07-18T15:55:03.751104,15.27574793,.0001287,43.0030,308.9811,265.9269,94.1436,0,U,55456,999,19075,.99336E-5,.11E-6,0
STARLINK-5682,2023-015J,2026-07-18T17:23:40.040736,15.27580946,.0001268,43.0033,308.5846,274.9418,85.1289,0,U,55457,999,19076,.15134E-4,.154E-5,0
STARLINK-5020,2023-015K,2026-07-18T08:30:08.968608,15.27592668,.00007618,43.0027,310.9552,244.1315,115.9459,0,U,55458,999,19070,.65516948E-4,.1542E-4,0
STARLINK-5669,2023-015L,2026-07-18T08:19:05.041632,15.27575576,.00008752,43.0018,310.9015,264.7721,95.3031,0,U,55459,999,19070,-.17344958E-4,-.739E-5,0
STARLINK-5678,2023-015M,2026-07-18T16:15:26.307648,15.27572931,.0001529,43.0026,309.0835,293.0003,67.0687,0,U,55460,999,19075,.10121E-4,.16E-6,0
STARLINK-5646,2023-015N,2026-07-18T16:04:18.732864,15.27576689,.0001465,43.0052,309.0284,272.3402,87.7282,0,U,55461,999,19075,.1872E-4,.253E-5,0
STARLINK-5673,2023-015P,2026-07-18T14:06:05.483808,15.27586249,.0001139,43.0031,309.2669,270.4935,89.5786,0,U,55462,999,19074,.44506E-4,.963E-5,0
STARLINK-5677,2023-015Q,2026-07-18T16:45:54.955008,15.18989846,.0006669,43.0001,319.4852,318.6507,41.3836,0,U,55463,999,19063,.67442E-3,.14169E-3,0
STARLINK-5676,2023-015R,2026-07-18T16:00:36.705600,15.27576530,.0001292,43.0027,309.0010,267.7691,92.3013,0,U,55464,999,19075,.30063E-4,.565E-5,0
STARLINK-5674,2023-015S,2026-07-18T14:11:40.657056,15.27605039,.0001382,43.0037,309.2981,261.6533,98.4162,0,U,55465,999,19074,.60768E-3,.1651E-3,0
STARLINK-5628,2023-015T,2026-07-18T16:17:15.927648,15.27574727,.0001348,43.0036,309.0867,277.6925,82.3774,0,U,55466,999,19075,.7467E-5,-.57E-6,0
STARLINK-5679,2023-015U,2026-07-18T15:34:42.402432,15.27575870,.000143,43.0022,308.8650,264.3770,95.6918,0,U,55467,999,19075,.43739E-4,.941E-5,0
STARLINK-5672,2023-015V,2026-07-18T17:40:19.155648,15.27575291,.0001333,43.0035,308.6618,270.2517,89.8182,0,U,55468,999,19076,.29412E-5,-.181E-5,0
STARLINK-5681,2023-015W,2026-07-18T17:25:31.088928,15.27576333,.0001195,43.0033,308.5887,279.3264,80.7453,0,U,55469,999,19076,.16641E-4,.196E-5,0
STARLINK-5708,2023-015X,2026-07-18T16:11:42.976608,15.27576390,.0001183,43.0031,309.0606,274.6521,85.4196,0,U,55470,999,19075,-.10551E-4,-.552E-5,0
STARLINK-5711,2023-015Y,2026-07-18T14:04:15.189024,15.27576828,.0001449,43.0035,309.2520,264.4625,95.6061,0,U,55471,999,19074,.25134E-4,.429E-5,0
STARLINK-5705,2023-015Z,2026-07-18T08:24:10.189152,15.27578842,.00024293,43.0004,303.8850,165.2172,194.8751,0,U,55472,999,19078,-.16025084E-3,-.467E-4,0
STARLINK-5689,2023-015AB,2026-07-18T17:44:00.134016,15.27576763,.000192,43.0045,319.9696,263.2836,96.7797,0,U,55474,999,19063,.1781E-4,.228E-5,0
STARLINK-5650,2023-015AC,2026-07-18T16:22:48.851040,15.27576836,.0001215,43.0041,309.1144,269.4417,90.6296,0,U,55475,999,19075,-.47378E-5,-.392E-5,0
STARLINK-5685,2023-015AE,2026-07-18T07:21:14.628384,15.27576264,.00011172,43.0022,303.5656,272.0704,88.0020,0,U,55477,999,19078,.9174588E-5,-.1E-6,0
STARLINK-5691,2023-015AF,2026-07-18T15:47:53.145600,15.27573399,.0001538,43.0040,298.4853,274.2440,85.8236,0,U,55478,999,19087,.3379E-4,.668E-5,0
STARLINK-5688,2023-015AG,2026-07-18T14:20:25.290816,15.27576777,.000143,43.0047,302.3052,281.9348,78.1343,0,U,55479,999,19082,.336E-5,-.17E-5,0
STARLINK-5690,2023-015AH,2026-07-18T16:55:52.565664,15.27578304,.0001298,43.0042,319.6429,265.9811,94.0892,0,U,55480,999,19063,-.34655E-4,-.1216E-4,0
