STARLINK-5699           
1 55449U 23015A   26199.69278481 -.00006439  00000+0 -22454-3 0  9993
2 55449  43.0047 309.2054 0001255 290.2255  69.8462 15.27599184191690
STARLINK-5686           
1 55450U 23015B   26199.68895785  .00003239  00000+0  12725-3 0  9999
2 55450  43.0033 309.1779 0000863 307.6355  52.4419 15.27560564191698
STARLINK-5656           
1 55451U 23015C   26199.69664959 -.00000876  00000+0 -22308-4 0  9993
2 55451  43.0057 309.2308 0002119 276.2011  83.8599 15.27584022190758
STARLINK-5683           
1 55452U 23015D   26199.63896922  .00000731  00000+0  36108-4 0  9996
2 55452  43.0040 309.6497 0001521 288.9321  71.1366 15.27576839190742
STARLINK-5684           
1 55453U 23015E   26199.39398172  .00000427  00000+0  25051-4 0  9991
2 55453  43.0039 310.4024 0001657 273.1958  86.8704 15.27576444190717
STARLINK-5636           
1 55454U 23015F   26199.01194361  .00000136  00000+0  14454-4 0  9997
2 55454  43.0030 312.6839 0001192 273.9217  86.1498 15.27577548190659
STARLINK-5680           
1 55455U 23015G   26199.30818251  .00000240  00000+0  18250-4 0  9995
2 55455  43.0047 311.4739 0002300 275.3812  84.6777 15.27578519190699
STARLINK-5058           
1 55456U 23015H   26199.66323786  .00000011  00000+0  99336-5 0  9990
2 55456  43.0030 308.9811 0001287 265.9269  94.1436 15.27574793190753
STARLINK-5682           
1 55457U 23015J   26199.72476899  .00000154  00000+0  15134-4 0  9993
2 55457  43.0033 308.5846 0001268 274.9418  85.1289 15.27580946190760
STARLINK-5020           
1 55458U 23015K   26199.35427047  .00001542  00000+0  65517-4 0  9996
2 55458  43.0027 310.9552 0000761 244.1315 115.9459 15.27592668190706
STARLINK-5669           
1 55459U 23015L   26199.34658613 -.00000739  00000+0 -17345-4 0  9996
2 55459  43.0018 310.9015 0000875 264.7721  95.3031 15.27575576190702
STARLINK-5678           
1 55460U 23015M   26199.67738782  .00000016  00000+0  10121-4 0  9991
2 55460  43.0026 309.0835 0001529 293.0003  67.0687 15.27572931190757
STARLINK-5646           
1 55461U 23015N   26199.66966126  .00000253  00000+0  18720-4 0  9992
2 55461  43.0052 309.0284 0001465 272.3402  87.7282 15.27576689190751
STARLINK-5673           
1 55462U 23015P   26199.58756347  .00000963  00000+0  44506-4 0  9995
2 55462  43.0031 309.2669 0001139 270.4935  89.5786 15.27586249190747
STARLINK-5677           
1 55463U 23015Q   26199.69855272  .00014169  00000+0  67442-3 0  9991
2 55463  43.0001 319.4852 0006669 318.6507  41.3836 15.18989846190635
STARLINK-5676           
1 55464U 23015R   26199.66709150  .00000565  00000+0  30063-4 0  9997
2 55464  43.0027 309.0010 0001292 267.7691  92.3013 15.27576530190758
STARLINK-5674           
1 55465U 23015S   26199.59144279  .00016510  00000+0  60768-3 0  9996
2 55465  43.0037 309.2981 0001382 261.6533  98.4162 15.27605039190745
STARLINK-5628           
1 55466U 23015T   26199.67865657 -.00000057  00000+0  74670-5 0  9995
2 55466  43.0036 309.0867 0001348 277.6925  82.3774 15.27574727190751
STARLINK-5679           
1 55467U 23015U   26199.64910188  .00000941  00000+0  43739-4 0  9995
2 55467  43.0022 308.8650 0001430 264.3770  95.6918 15.27575870190754
STARLINK-5672           
1 55468U 23015V   26199.73633282 -.00000181  00000+0  29412-5 0  9993
2 55468  43.0035 308.6618 0001333 270.2517  89.8182 15.27575291190764
STARLINK-5681           
1 55469U 23015W   26199.72605427  .00000196  00000+0  16641-4 0  9997
2 55469  43.0033 308.5887 0001195 279.3264  80.7453 15.27576333190764
STARLINK-5708           
1 55470U 23015X   26199.67480297 -.00000552  00000+0 -10551-4 0  9991
2 55470  43.0031 309.0606 0001183 274.6521  85.4196 15.27576390190758
STARLINK-5711           
1 55471U 23015Y   26199.58628691  .00000429  00000+0  25134-4 0  9998
2 55471  43.0035 309.2520 0001449 264.4625  95.6061 15.27576828190746
STARLINK-5705           
1 55472U 23015Z   26199.35011793 -.00004670  00000+0 -16025-3 0  9995
2 55472  43.0004 303.8850 0002429 165.2172 194.8751 15.27578842190783
STARLINK-5689           
1 55474U 23015AB  26199.73889044  .00000228  00000+0  17810-4 0  9998
2 55474  43.0045 319.9696 0001920 263.2836  96.7797 15.27576763190631
STARLINK-5650           
1 55475U 23015AC  26199.68250985 -.00000392  00000+0 -47378-5 0  9996
2 55475  43.0041 309.1144 0001215 269.4417  90.6296 15.27576836190758
STARLINK-5685           
1 55477U 23015AE  26199.30641931 -.00000010  00000+0  91746-5 0  9996
2 55477  43.0022 303.5656 0001117 272.0704  88.0020 15.27576264190789
STARLINK-5691           
1 55478U 23015AF  26199.65825400  .00000668  00000+0  33790-4 0  9992
2 55478  43.0040 298.4853 0001538 274.2440  85.8236 15.27573399190879
STARLINK-5688           
1 55479U 23015AG  26199.59751494 -.00000170  00000+0  33600-5 0  9997
2 55479  43.0047 302.3052 0001430 281.9348  78.1343 15.27576777190828
STARLINK-5690           
1 55480U 23015AH  26199.70546951 -.00001216  00000+0 -34655-4 0  9995
2 55480  43.0042 319.6429 0001298 265.9811  94.0892 15.27578304190636
